NORAD_CAT_ID,OBJECT_NAME,OBJECT_TYPE,EPOCH,MEAN_MOTION,ECCENTRICITY,INCLINATION,RA_OF_ASC_NODE,ARG_OF_PERICENTER,MEAN_ANOMALY,BSTAR,MEAN_MOTION_DOT,MEAN_MOTION_DDOT,TLE_LINE0,TLE_LINE1,TLE_LINE2,SEMIMAJOR_AXIS,PERIOD,APOGEE,PERIGEE,DECAYED
53253.0,STARLINK-4133,PAYLOAD,2022-09-09 22:00:00,15.52020167,0.0001205999999999,53.2175,169.5079,75.5946,203.4462,-0.019032,-0.01058956,0.0,0 STARLINK-4133,1 53253U 22086M   22252.91667824 -.01058956  00000-0 -19032-1 0  9994,2 53253  53.2175 169.5079 0001206  75.5946 203.4462 15.52020167  1309,6788.965,92.782,411.649,410.012,0.0
53253.0,STARLINK-4133,PAYLOAD,2022-09-10 04:00:00,15.51449787,0.0001363,53.2175,168.3096,68.4247,167.9632,-0.019402,-0.01057701,0.0,0 STARLINK-4133,1 53253U 22086M   22253.16667824 -.01057701  00000-0 -19402-1 0  9990,2 53253  53.2175 168.3096 0001363  68.4247 167.9632 15.51449787  8115,6790.629,92.816,413.42,411.569,0.0
53253.0,STARLINK-4133,PAYLOAD,2022-09-10 12:00:00,15.50572769,0.0001408,53.2174,166.7107,74.4172,224.3226,-0.013174,-0.00701579,0.0,0 STARLINK-4133,1 53253U 22086M   22253.50001157 -.00701579  00000-0 -13174-1 0  9997,2 53253  53.2174 166.7107 0001408  74.4172 224.3226 15.50572769  8161,6793.19,92.869,416.011,414.098,0.0
53253.0,STARLINK-4133,PAYLOAD,2022-09-10 14:00:01,15.50377193,0.000131,53.2174,166.3113,73.8519,330.3245,-0.01052,-0.00566082,0.0,0 STARLINK-4133,1 53253U 22086M   22253.58334491 -.00566082  00000-0 -10520-1 0  9995,2 53253  53.2174 166.3113 0001310  73.8519 330.3245 15.50377193  1306,6793.761,92.881,416.516,414.736,0.0
53253.0,STARLINK-4133,PAYLOAD,2022-09-10 20:00:01,15.49946333,0.0001424,53.2175,165.1158,77.3205,282.8677,-0.0017579999999999,-0.00099189,0.0,0 STARLINK-4133,1 53253U 22086M   22253.83334491 -.00099189  00000-0 -17580-2 0  9996,2 53253  53.2175 165.1158 0001424  77.3205 282.8677 15.49946333  8224,6795.02,92.906,417.853,415.917,0.0
53253.0,STARLINK-4133,PAYLOAD,2022-09-10 22:00:00,15.49881996,0.0001331999999999,53.2175,164.7181,75.4804,29.9664,8.096899999999999e-05,4.146e-05,0.0,0 STARLINK-4133,1 53253U 22086M   22253.91667824  .00004146  00000-0  80969-4 0  9994,2 53253  53.2175 164.7181 0001332  75.4804  29.9664 15.49881996  1308,6795.208000000001,92.91,417.978,416.168,0.0
53253.0,STARLINK-4133,PAYLOAD,2022-09-11 06:00:00,15.49914763,0.0001032999999999,53.2152,163.1345,56.1429,110.2266,0.00023829,0.0001311,0.0,0 STARLINK-4133,1 53253U 22086M   22254.25001157  .00013110  00000-0  23829-3 0  9995,2 53253  53.2152 163.1345 0001033  56.1429 110.2266 15.49914763  8280,6795.111999999999,92.908,417.679,416.275,0.0
53253.0,STARLINK-4133,PAYLOAD,2022-09-11 14:00:01,15.49911115,9.3e-05,53.2153,161.5393,68.2618,159.0674,0.00038254,0.00021339,0.0,0 STARLINK-4133,1 53253U 22086M   22254.58334491  .00021339  00000-0  38254-3 0  9991,2 53253  53.2153 161.5393 0000930  68.2618 159.0674 15.49911115  1303,6795.123000000001,92.909,417.62,416.356,0.0
53253.0,STARLINK-4133,PAYLOAD,2022-09-11 22:00:00,15.49917538,0.0001193,53.2152,159.9473,67.816,220.4721,-0.001029,-0.00058485,0.0,0 STARLINK-4133,1 53253U 22086M   22254.91667824 -.00058485  00000-0 -10290-2 0  9990,2 53253  53.2152 159.9473 0001193  67.8160 220.4721 15.49917538  1302,6795.104,92.908,417.78,416.158,0.0
53253.0,STARLINK-4133,PAYLOAD,2022-09-12 14:00:01,15.49872895,0.0001139,53.2145,156.7599,73.4521,336.67800000000005,0.0011098,0.00063017,0.0,0 STARLINK-4133,1 53253U 22086M   22255.58334491  .00063017  00000-0  11098-2 0  9997,2 53253  53.2145 156.7599 0001139  73.4521 336.6780 15.49872895  1303,6795.235,92.911,417.874,416.326,0.0
53253.0,STARLINK-4133,PAYLOAD,2022-09-12 22:00:00,15.49993522,0.0001415,53.2152,155.1649,68.9008,42.1377,-0.0033094,-0.0018463,0.0,0 STARLINK-4133,1 53253U 22086M   22255.91667824 -.00184630  00000-0 -33094-2 0  9990,2 53253  53.2152 155.1649 0001415  68.9008  42.1377 15.49993522  1308,6794.882,92.904,417.708,415.786,0.0
53253.0,STARLINK-4133,PAYLOAD,2022-09-13 06:00:00,15.49715388,0.0001339,53.2157,153.5678,67.546,104.5127,-0.0077626,-0.00415915,0.0,0 STARLINK-4133,1 53253U 22086M   22256.25001157 -.00415915  00000-0 -77626-2 0  9991,2 53253  53.2157 153.5678 0001339  67.5460 104.5127 15.49715388  8595,6795.695,92.92,418.47,416.65,0.0
53253.0,STARLINK-4133,PAYLOAD,2022-09-13 14:00:01,15.49546175,0.0001228,53.2173,151.9692,91.6338,140.9568,-0.020784,-0.01058314,0.0,0 STARLINK-4133,1 53253U 22086M   22256.58334491 -.01058314  00000-0 -20784-1 0  9996,2 53253  53.2173 151.9692 0001228  91.6338 140.9568 15.49546175  1301,6796.19,92.93,418.889,417.22,0.0
53253.0,STARLINK-4133,PAYLOAD,2022-09-13 16:00:00,15.49354204,0.0001097,53.2173,151.5706,91.8407,245.8472,-0.020868,-0.01055604,0.0,0 STARLINK-4133,1 53253U 22086M   22256.66667824 -.01055604  00000-0 -20868-1 0  9996,2 53253  53.2173 151.5706 0001097  91.8407 245.8472 15.49354204  8661,6796.751,92.942,419.362,417.87,0.0
53253.0,STARLINK-4133,PAYLOAD,2022-09-13 22:00:00,15.48785476,0.000123,53.2173,150.3774,69.7897,222.8436,-0.021307,-0.01056288,0.0,0 STARLINK-4133,1 53253U 22086M   22256.91667824 -.01056288  00000-0 -21307-1 0  9992,2 53253  53.2173 150.3774 0001230  69.7897 222.8436 15.48785476  1306,6798.415,92.976,421.116,419.444,0.0
53253.0,STARLINK-4133,PAYLOAD,2022-09-14 14:00:01,15.4727628,0.0001204,53.2166,147.1961,54.8105,355.1648,-0.022736,-0.01067727,0.0,0 STARLINK-4133,1 53253U 22086M   22257.58334491 -.01067727  00000-0 -22736-1 0  9994,2 53253  53.2166 147.1961 0001204  54.8105 355.1648 15.47276280  8802,6802.835,93.067,425.519,423.881,0.0
53253.0,STARLINK-4133,PAYLOAD,2022-09-14 22:00:00,15.46532572,0.0001185,53.2169,145.6098,77.0119,30.2597,-0.023825,-0.01088102,0.0,0 STARLINK-4133,1 53253U 22086M   22257.91667824 -.01088102  00000-0 -23825-1 0  9990,2 53253  53.2169 145.6098 0001185  77.0119  30.2597 15.46532572  1309,6805.016,93.112,427.687,426.074,0.0
53253.0,STARLINK-4133,PAYLOAD,2022-09-15 14:00:01,15.4498171,0.0001299,53.2166,142.4373,65.3272,153.8349,-0.024107,-0.01047559,0.0,0 STARLINK-4133,1 53253U 22086M   22258.58334491 -.01047559  00000-0 -24107-1 0  9990,2 53253  53.2166 142.4373 0001299  65.3272 153.8349 15.44981710  1300,6809.569,93.205,432.318,430.549,0.0
53253.0,STARLINK-4133,PAYLOAD,2022-09-15 22:00:00,15.44227461,0.0001327,53.2174,140.8555,65.0391,208.6873,-0.024905,-0.01053956,0.0,0 STARLINK-4133,1 53253U 22086M   22258.91667824 -.01053956  00000-0 -24905-1 0  9990,2 53253  53.2174 140.8555 0001327  65.0391 208.6873 15.44227461  1301,6811.786,93.251,434.555,432.747,0.0
53253.0,STARLINK-4133,PAYLOAD,2022-09-16 00:00:00,15.44045405,0.0001149,53.2173,140.4612,71.689,305.5327,-0.02537,-0.0106572,0.0,0 STARLINK-4133,1 53253U 22086M   22259.00001157 -.01065720  00000-0 -25370-1 0  9991,2 53253  53.2173 140.4612 0001149  71.6890 305.5327 15.44045405  9023,6812.321,93.262,434.969,433.404,0.0
53253.0,STARLINK-4133,PAYLOAD,2022-09-16 14:00:01,15.42707911,0.0001193,53.2173,137.694,59.7573,320.3669,-0.026215,-0.01068219,0.0,0 STARLINK-4133,1 53253U 22086M   22259.58334491 -.01068219  00000-0 -26215-1 0  9999,2 53253  53.2173 137.6940 0001193  59.7573 320.3669 15.42707911  1301,6816.2580000000025,93.342,438.936,437.31,0.0
53253.0,STARLINK-4133,PAYLOAD,2022-09-16 22:00:00,15.41951277,0.0001369,53.2175,136.1189,54.3121,17.6389,-0.026996,-0.01072036,0.0,0 STARLINK-4133,1 53253U 22086M   22259.91667824 -.01072036  00000-0 -26996-1 0  9993,2 53253  53.2175 136.1189 0001369  54.3121  17.6389 15.41951277  9169,6818.488,93.388,441.286,439.419,0.0
53253.0,STARLINK-4133,PAYLOAD,2022-09-17 14:00:01,15.4043174,0.0001418,53.2173,132.9685,62.9216,109.951,-0.02839,-0.01071546,0.0,0 STARLINK-4133,1 53253U 22086M   22260.58334491 -.01071546  00000-0 -28390-1 0  9994,2 53253  53.2173 132.9685 0001418  62.9216 109.9510 15.40431740  1303,6822.971,93.48,445.804,443.869,0.0
53253.0,STARLINK-4133,PAYLOAD,2022-09-17 22:00:00,15.396703099999998,0.0001494,53.2174,131.3986,59.1804,162.783,-0.0290069999999999,-0.01067834,0.0,0 STARLINK-4133,1 53253U 22086M   22260.91667824 -.01067834  00000-0 -29007-1 0  9991,2 53253  53.2174 131.3986 0001494  59.1804 162.7830 15.39670310  9313,6825.22,93.527,448.105,446.066,0.0
53253.0,STARLINK-4133,PAYLOAD,2022-09-18 14:00:01,15.38150562,0.0001210999999999,53.2173,128.259,69.509,247.9641,-0.0304569999999999,-0.01066488,0.0,0 STARLINK-4133,1 53253U 22086M   22261.58335648 -.01066488  00000-0 -30457-1 0  9996,2 53253  53.2173 128.2590 0001211  69.5090 247.9641 15.38150562  1305,6829.715,93.619,452.408,450.753,0.0
53253.0,STARLINK-4133,PAYLOAD,2022-09-18 22:00:00,15.37394244,0.0001252999999999,53.2172,126.6947,61.6145,302.1453,-0.031376,-0.01071402,0.0,0 STARLINK-4133,1 53253U 22086M   22261.91667824 -.01071402  00000-0 -31376-1 0  9990,2 53253  53.2172 126.6947 0001253  61.6145 302.1453 15.37394244  9479,6831.955,93.665,454.676,452.964,0.0
53253.0,STARLINK-4133,PAYLOAD,2022-09-19 14:00:01,15.35873068,0.0001315,53.2174,123.5657,64.35,29.3801,-0.032832,-0.01067457,0.0,0 STARLINK-4133,1 53253U 22086M   22262.58334491 -.01067457  00000-0 -32832-1 0  9998,2 53253  53.2174 123.5657 0001315  64.3500  29.3801 15.35873068  1302,6836.465,93.758,459.229,457.431,0.0
53253.0,STARLINK-4133,PAYLOAD,2022-09-19 22:00:00,15.35114688,0.0001508,53.2172,122.007,56.8934,80.4502,-0.033704,-0.01069242,0.0,0 STARLINK-4133,1 53253U 22086M   22262.91667824 -.01069242  00000-0 -33704-1 0  9997,2 53253  53.2172 122.0070 0001508  56.8934  80.4502 15.35114688  9629,6838.717,93.804,461.61300000000006,459.551,0.0
53253.0,STARLINK-4133,PAYLOAD,2022-09-20 14:00:01,15.33594692,0.0001394,53.2173,118.8888,71.6906,150.1467,-0.035296,-0.01066793,0.0,0 STARLINK-4133,1 53253U 22086M   22263.58334491 -.01066793  00000-0 -35296-1 0  9998,2 53253  53.2173 118.8888 0001394  71.6906 150.1467 15.33594692  1304,6843.235,93.897,466.054,464.146,0.0
